SRMSAT                  
1 37841U 11058D   26061.50080932  .00000475  00000+0  11391-3 0  9993
2 37841  19.9732 345.2138 0011888 110.4701  67.1482 14.11544423742721
SUOMI NPP               
1 37849U 11061A   26061.83572128  .00000092  00000+0  64718-4 0  9991
2 37849  98.7862   3.4932 0000453 296.0738  64.0391 14.19541209743352
YAOGAN-12               
1 37875U 11066B   26061.83556094  .00004014  00000+0  16189-3 0  9995
2 37875  97.1298 105.4261 0008483 238.5148 121.5262 15.25323088795828
ZIYUAN 3-01 (ZY 3-01)   
1 38046U 12001A   26061.87000047  .00400427  67235-4  94385-3 0  9992
2 38046  97.1546 136.3605 0001582 245.7463 114.3649 15.96838851787617
BEIDOU-2 M4             
1 38251U 12018B   26058.58148709 -.00000045  00000+0  00000+0 0  9992
2 38251  55.7521 307.7944 0013045 286.0559  73.8564  1.86229541 93900
ARIRANG-3 (KOMPSAT-3)   
1 38338U 12025B   26061.82472602  .00001169  00000+0  24196-3 0  9992
2 38338  98.1051  21.2022 0006760  88.0277 272.1699 14.62091222735809
HORYU-2                 
1 38340U 12025D   26061.78281506  .00005494  00000+0  57130-3 0  9990
2 38340  98.2002 190.5290 0008745 163.6681 196.4819 14.90288214732876
CSSWE                   
1 38761U 12048D   26061.51876652  .00031689  00000+0  76357-3 0  9992
2 38761  64.6615  93.3133 0069050 205.2665 154.5088 15.38623157 99957
CP5                     
1 38763U 12048F   26061.66519708  .00021708  00000+0  76145-3 0  9992
2 38763  64.6467 143.9002 0099147 208.2276 151.3459 15.24834674100506
METOP-B                 
1 38771U 12049A   26061.75789492  .00000139  00000+0  83411-4 0  9991
2 38771  98.6657 115.3115 0001247 304.0928  56.0131 14.21441976698149
SJ-9A                   
1 38860U 12056A   26061.86134315  .00001667  00000+0  19962-3 0  9994
2 38860  97.6599  37.7480 0024164 246.2625 113.6055 14.85200948683802
COSMOS 2484 (RODNIK-S 6)
1 39059U 13001C   26061.81366826  .00000015  00000+0  41849-4 0  9991
2 39059  82.5005 288.0520 0025604 266.2469  93.5683 12.42935619595347
SARAL                   
1 39086U 13009A   26061.75757653  .00000159  00000+0  74366-4 0  9993
2 39086  98.5551 249.6604 0001087 204.6164 155.4968 14.32825611680365
AAUSAT 3                
1 39087U 13009B   26061.44236691  .00001011  00000+0  33568-3 0  9990
2 39087  98.3684 247.6715 0011722 167.9449 192.2022 14.39782456681813
STRAND-1                
1 39090U 13009E   26061.46258252  .00000465  00000+0  17107-3 0  9996
2 39090  98.3880 244.3341 0008604 182.8724 177.2415 14.37087200681734
BRITE-AUSTRIA           
1 39091U 13009F   26061.49984190  .00000297  00000+0  11565-3 0  9992
2 39091  98.3949 243.5873 0009932 192.5436 167.5505 14.36491012681736
UNIBRITE                
1 39092U 13009G   26061.50254404  .00000287  00000+0  11280-3 0  9996
2 39092  98.3988 243.6746 0008941 188.2227 171.8814 14.36362164681678
