[{"OBJECT_NAME":"SRMSAT","OBJECT_ID":"2011-058D","EPOCH":"2026-03-02T12:01:09.925248","MEAN_MOTION":14.11544423,"ECCENTRICITY":0.0011888,"INCLINATION":19.9732,"RA_OF_ASC_NODE":345.2138,"ARG_OF_PERICENTER":110.4701,"MEAN_ANOMALY":67.1482,"EPHEMERIS_TYPE":0,"CLASSIFICATION_TYPE":"U","NORAD_CAT_ID":37841,"ELEMENT_SET_NO":999,"REV_AT_EPOCH":74272,"BSTAR":0.00011390903,"MEAN_MOTION_DOT":4.75e-6,"MEAN_MOTION_DDOT":0},{"OBJECT_NAME":"SUOMI NPP","OBJECT_ID":"2011-061A","EPOCH":"2026-03-02T20:03:26.318592","MEAN_MOTION":14.19541209,"ECCENTRICITY":4.53e-5,"INCLINATION":98.7862,"RA_OF_ASC_NODE":3.4932,"ARG_OF_PERICENTER":296.0738,"MEAN_ANOMALY":64.0391,"EPHEMERIS_TYPE":0,"CLASSIFICATION_TYPE":"U","NORAD_CAT_ID":37849,"ELEMENT_SET_NO":999,"REV_AT_EPOCH":74335,"BSTAR":6.4718e-5,"MEAN_MOTION_DOT":9.2e-7,"MEAN_MOTION_DDOT":0},{"OBJECT_NAME":"YAOGAN-12","OBJECT_ID":"2011-066B","EPOCH":"2026-03-02T20:03:12.465216","MEAN_MOTION":15.25323088,"ECCENTRICITY":0.0008483,"INCLINATION":97.1298,"RA_OF_ASC_NODE":105.4261,"ARG_OF_PERICENTER":238.5148,"MEAN_ANOMALY":121.5262,"EPHEMERIS_TYPE":0,"CLASSIFICATION_TYPE":"U","NORAD_CAT_ID":37875,"ELEMENT_SET_NO":999,"REV_AT_EPOCH":79582,"BSTAR":0.00016189,"MEAN_MOTION_DOT":4.014e-5,"MEAN_MOTION_DDOT":0},{"OBJECT_NAME":"ZIYUAN 3-01 (ZY 3-01)","OBJECT_ID":"2012-001A","EPOCH":"2026-03-02T20:52:48.040608","MEAN_MOTION":15.96838851,"ECCENTRICITY":0.0001582,"INCLINATION":97.1546,"RA_OF_ASC_NODE":136.3605,"ARG_OF_PERICENTER":245.7463,"MEAN_ANOMALY":114.3649,"EPHEMERIS_TYPE":0,"CLASSIFICATION_TYPE":"U","NORAD_CAT_ID":38046,"ELEMENT_SET_NO":999,"REV_AT_EPOCH":78761,"BSTAR":0.00094385,"MEAN_MOTION_DOT":0.00400427,"MEAN_MOTION_DDOT":6.7235e-5},{"OBJECT_NAME":"BEIDOU-2 M4","OBJECT_ID":"2012-018B","EPOCH":"2026-02-27T13:57:20.484576","MEAN_MOTION":1.86229541,"ECCENTRICITY":0.00130453,"INCLINATION":55.7521,"RA_OF_ASC_NODE":307.7944,"ARG_OF_PERICENTER":286.0559,"MEAN_ANOMALY":73.8564,"EPHEMERIS_TYPE":0,"CLASSIFICATION_TYPE":"U","NORAD_CAT_ID":38251,"ELEMENT_SET_NO":999,"REV_AT_EPOCH":9390,"BSTAR":0,"MEAN_MOTION_DOT":-4.5e-7,"MEAN_MOTION_DDOT":0},{"OBJECT_NAME":"ARIRANG-3 (KOMPSAT-3)","OBJECT_ID":"2012-025B","EPOCH":"2026-03-02T19:47:36.328128","MEAN_MOTION":14.62091222,"ECCENTRICITY":0.000676,"INCLINATION":98.1051,"RA_OF_ASC_NODE":21.2022,"ARG_OF_PERICENTER":88.0277,"MEAN_ANOMALY":272.1699,"EPHEMERIS_TYPE":0,"CLASSIFICATION_TYPE":"U","NORAD_CAT_ID":38338,"ELEMENT_SET_NO":999,"REV_AT_EPOCH":73580,"BSTAR":0.00024196,"MEAN_MOTION_DOT":1.169e-5,"MEAN_MOTION_DDOT":0},{"OBJECT_NAME":"HORYU-2","OBJECT_ID":"2012-025D","EPOCH":"2026-03-02T18:47:15.221184","MEAN_MOTION":14.90288214,"ECCENTRICITY":0.0008745,"INCLINATION":98.2002,"RA_OF_ASC_NODE":190.529,"ARG_OF_PERICENTER":163.6681,"MEAN_ANOMALY":196.4819,"EPHEMERIS_TYPE":0,"CLASSIFICATION_TYPE":"U","NORAD_CAT_ID":38340,"ELEMENT_SET_NO":999,"REV_AT_EPOCH":73287,"BSTAR":0.0005713,"MEAN_MOTION_DOT":5.494e-5,"MEAN_MOTION_DDOT":0},{"OBJECT_NAME":"CSSWE","OBJECT_ID":"2012-048D","EPOCH":"2026-03-02T12:27:01.427328","MEAN_MOTION":15.38623157,"ECCENTRICITY":0.00690508,"INCLINATION":64.6615,"RA_OF_ASC_NODE":93.3133,"ARG_OF_PERICENTER":205.2665,"MEAN_ANOMALY":154.5088,"EPHEMERIS_TYPE":0,"CLASSIFICATION_TYPE":"U","NORAD_CAT_ID":38761,"ELEMENT_SET_NO":999,"REV_AT_EPOCH":9995,"BSTAR":0.00076356769,"MEAN_MOTION_DOT":0.00031689,"MEAN_MOTION_DDOT":0},{"OBJECT_NAME":"CP5","OBJECT_ID":"2012-048F","EPOCH":"2026-03-02T15:57:53.027712","MEAN_MOTION":15.24834674,"ECCENTRICITY":0.0099147,"INCLINATION":64.6467,"RA_OF_ASC_NODE":143.9002,"ARG_OF_PERICENTER":208.2276,"MEAN_ANOMALY":151.3459,"EPHEMERIS_TYPE":0,"CLASSIFICATION_TYPE":"U","NORAD_CAT_ID":38763,"ELEMENT_SET_NO":999,"REV_AT_EPOCH":10050,"BSTAR":0.00076145,"MEAN_MOTION_DOT":0.00021708,"MEAN_MOTION_DDOT":0},{"OBJECT_NAME":"METOP-B","OBJECT_ID":"2012-049A","EPOCH":"2026-03-02T18:11:22.121088","MEAN_MOTION":14.21441976,"ECCENTRICITY":0.0001247,"INCLINATION":98.6657,"RA_OF_ASC_NODE":115.3115,"ARG_OF_PERICENTER":304.0928,"MEAN_ANOMALY":56.0131,"EPHEMERIS_TYPE":0,"CLASSIFICATION_TYPE":"U","NORAD_CAT_ID":38771,"ELEMENT_SET_NO":999,"REV_AT_EPOCH":69814,"BSTAR":8.3411e-5,"MEAN_MOTION_DOT":1.39e-6,"MEAN_MOTION_DDOT":0},{"OBJECT_NAME":"SJ-9A","OBJECT_ID":"2012-056A","EPOCH":"2026-03-02T20:40:20.048160","MEAN_MOTION":14.85200948,"ECCENTRICITY":0.0024164,"INCLINATION":97.6599,"RA_OF_ASC_NODE":37.748,"ARG_OF_PERICENTER":246.2625,"MEAN_ANOMALY":113.6055,"EPHEMERIS_TYPE":0,"CLASSIFICATION_TYPE":"U","NORAD_CAT_ID":38860,"ELEMENT_SET_NO":999,"REV_AT_EPOCH":68380,"BSTAR":0.00019962,"MEAN_MOTION_DOT":1.667e-5,"MEAN_MOTION_DDOT":0},{"OBJECT_NAME":"COSMOS 2484 (RODNIK-S 6)","OBJECT_ID":"2013-001C","EPOCH":"2026-03-02T19:31:40.937664","MEAN_MOTION":12.42935619,"ECCENTRICITY":0.0025604,"INCLINATION":82.5005,"RA_OF_ASC_NODE":288.052,"ARG_OF_PERICENTER":266.2469,"MEAN_ANOMALY":93.5683,"EPHEMERIS_TYPE":0,"CLASSIFICATION_TYPE":"U","NORAD_CAT_ID":39059,"ELEMENT_SET_NO":999,"REV_AT_EPOCH":59534,"BSTAR":4.1849e-5,"MEAN_MOTION_DOT":1.5e-7,"MEAN_MOTION_DDOT":0},{"OBJECT_NAME":"SARAL","OBJECT_ID":"2013-009A","EPOCH":"2026-03-02T18:10:54.612192","MEAN_MOTION":14.32825611,"ECCENTRICITY":0.0001087,"INCLINATION":98.5551,"RA_OF_ASC_NODE":249.6604,"ARG_OF_PERICENTER":204.6164,"MEAN_ANOMALY":155.4968,"EPHEMERIS_TYPE":0,"CLASSIFICATION_TYPE":"U","NORAD_CAT_ID":39086,"ELEMENT_SET_NO":999,"REV_AT_EPOCH":68036,"BSTAR":7.4366e-5,"MEAN_MOTION_DOT":1.59e-6,"MEAN_MOTION_DDOT":0},{"OBJECT_NAME":"AAUSAT 3","OBJECT_ID":"2013-009B","EPOCH":"2026-03-02T10:37:00.501024","MEAN_MOTION":14.39782456,"ECCENTRICITY":0.00117221,"INCLINATION":98.3684,"RA_OF_ASC_NODE":247.6715,"ARG_OF_PERICENTER":167.9449,"MEAN_ANOMALY":192.2022,"EPHEMERIS_TYPE":0,"CLASSIFICATION_TYPE":"U","NORAD_CAT_ID":39087,"ELEMENT_SET_NO":999,"REV_AT_EPOCH":68181,"BSTAR":0.00033568349,"MEAN_MOTION_DOT":1.011e-5,"MEAN_MOTION_DDOT":0},{"OBJECT_NAME":"STRAND-1","OBJECT_ID":"2013-009E","EPOCH":"2026-03-02T11:06:07.129728","MEAN_MOTION":14.370872,"ECCENTRICITY":0.00086048,"INCLINATION":98.388,"RA_OF_ASC_NODE":244.3341,"ARG_OF_PERICENTER":182.8724,"MEAN_ANOMALY":177.2415,"EPHEMERIS_TYPE":0,"CLASSIFICATION_TYPE":"U","NORAD_CAT_ID":39090,"ELEMENT_SET_NO":999,"REV_AT_EPOCH":68173,"BSTAR":0.00017107477,"MEAN_MOTION_DOT":4.65e-6,"MEAN_MOTION_DDOT":0},{"OBJECT_NAME":"BRITE-AUSTRIA","OBJECT_ID":"2013-009F","EPOCH":"2026-03-02T11:59:46.340160","MEAN_MOTION":14.36491012,"ECCENTRICITY":0.00099324,"INCLINATION":98.3949,"RA_OF_ASC_NODE":243.5873,"ARG_OF_PERICENTER":192.5436,"MEAN_ANOMALY":167.5505,"EPHEMERIS_TYPE":0,"CLASSIFICATION_TYPE":"U","NORAD_CAT_ID":39091,"ELEMENT_SET_NO":999,"REV_AT_EPOCH":68173,"BSTAR":0.00011565207,"MEAN_MOTION_DOT":2.97e-6,"MEAN_MOTION_DDOT":0},{"OBJECT_NAME":"UNIBRITE","OBJECT_ID":"2013-009G","EPOCH":"2026-03-02T12:03:39.805056","MEAN_MOTION":14.36362164,"ECCENTRICITY":0.00089411,"INCLINATION":98.3988,"RA_OF_ASC_NODE":243.6746,"ARG_OF_PERICENTER":188.2227,"MEAN_ANOMALY":171.8814,"EPHEMERIS_TYPE":0,"CLASSIFICATION_TYPE":"U","NORAD_CAT_ID":39092,"ELEMENT_SET_NO":999,"REV_AT_EPOCH":68167,"BSTAR":0.00011280073,"MEAN_MOTION_DOT":2.87e-6,"MEAN_MOTION_DDOT":0}]
